ATLAS CENTAUR 2         
1 00694U 63047A   26044.15478307  .00001337  00000+0  14858-3 0  9992
2 00694  30.3579 332.7493 0548124 224.0941 131.4680 14.11998314128156
THOR AGENA D R/B        
1 00733U 64002A   26044.03160706  .00000261  00000+0  11051-3 0  9993
2 00733  99.1229  56.0259 0032446 331.9140  28.0291 14.34004795234765
SL-3 R/B                
1 00877U 64053B   26044.12382377  .00000377  00000+0  97209-4 0  9996
2 00877  65.0767  43.2557 0078576 300.0059  59.3260 14.61341736263205
SL-8 R/B                
1 02802U 67045B   26044.14647322  .00000372  00000+0  11053-3 0  9993
2 02802  74.0106  33.9220 0063248  46.2917 314.3454 14.45597191 85477
SL-8 R/B                
1 03230U 68040B   26044.01775874  .00003904  00000+0  29067-3 0  9993
2 03230  74.0321   4.0950 0025067 195.2426 164.8011 15.03068651 86307
OAO 2                   
1 03597U 68110A   26044.08538991  .00000275  00000+0  79371-4 0  9993
2 03597  34.9943  42.5909 0005478 354.3012   5.7615 14.47292547 15532
ISIS 1                  
1 03669U 69009A   26043.84801207  .00000290  00000+0  19216-3 0  9995
2 03669  88.4556 158.0153 1707853 139.2833 234.9380 11.30404848345728
SERT 2                  
1 04327U 70009A   26043.80264191  .00000010  00000+0  69689-4 0  9990
2 04327  99.2725 348.2625 0004117 221.9362 166.5510 13.58727389776513
SL-3 R/B                
1 05118U 71028B   26044.15417493  .00028776  00000+0  36462-3 0  9996
2 05118  81.2340  82.2919 0016997  21.2218 338.9735 15.59131926984847
ASTEX 1                 
1 05560U 71089A   26044.19845081  .00000575  00000+0  14624-3 0  9999
2 05560  92.7150 143.8364 0016387 159.7118 200.4743 14.50741159858758
SL-8 R/B                
1 05730U 71119B   26044.15896000  .00012575  00000+0  65258-3 0  9997
2 05730  73.8844 221.5451 0553180 193.2228 165.3923 14.37082688651963
OAO 3 (COPERNICUS)      
1 06153U 72065A   26044.18406919  .00000389  00000+0  84200-4 0  9996
2 06153  35.0057  76.9289 0006997 316.4806  99.6758 14.59975791842619
