CCSDS_OMM_VERS = 2.0
CREATION_DATE  = 
ORIGINATOR     = 

OBJECT_NAME    = ATLAS CENTAUR 2
OBJECT_ID      = 1963-047A
CENTER_NAME    = EARTH
REF_FRAME      = TEME
TIME_SYSTEM    = UTC
MEAN_ELEMENT_THEORY = SGP/SGP4

EPOCH          = 2026-02-13T03:42:53.257248
MEAN_MOTION    = 14.11998314
ECCENTRICITY   = .0548124
INCLINATION    = 30.3579
RA_OF_ASC_NODE = 332.7493
ARG_OF_PERICENTER = 224.0941
MEAN_ANOMALY   = 131.4680

EPHEMERIS_TYPE = 0
CLASSIFICATION_TYPE = U
NORAD_CAT_ID   = 694
ELEMENT_SET_NO = 999
REV_AT_EPOCH   = 12815
BSTAR          = .14858E-3
MEAN_MOTION_DOT = .1337E-4
MEAN_MOTION_DDOT = 0

CCSDS_OMM_VERS = 2.0
CREATION_DATE  = 
ORIGINATOR     = 

OBJECT_NAME    = THOR AGENA D R/B
OBJECT_ID      = 1964-002A
CENTER_NAME    = EARTH
REF_FRAME      = TEME
TIME_SYSTEM    = UTC
MEAN_ELEMENT_THEORY = SGP/SGP4

EPOCH          = 2026-02-13T00:45:30.849984
MEAN_MOTION    = 14.34004795
ECCENTRICITY   = .0032446
INCLINATION    = 99.1229
RA_OF_ASC_NODE = 56.0259
ARG_OF_PERICENTER = 331.9140
MEAN_ANOMALY   = 28.0291

EPHEMERIS_TYPE = 0
CLASSIFICATION_TYPE = U
NORAD_CAT_ID   = 733
ELEMENT_SET_NO = 999
REV_AT_EPOCH   = 23476
BSTAR          = .11051E-3
MEAN_MOTION_DOT = .261E-5
MEAN_MOTION_DDOT = 0

CCSDS_OMM_VERS = 2.0
CREATION_DATE  = 
ORIGINATOR     = 

OBJECT_NAME    = SL-3 R/B
OBJECT_ID      = 1964-053B
CENTER_NAME    = EARTH
REF_FRAME      = TEME
TIME_SYSTEM    = UTC
MEAN_ELEMENT_THEORY = SGP/SGP4

EPOCH          = 2026-02-13T02:58:18.373728
MEAN_MOTION    = 14.61341736
ECCENTRICITY   = .0078576
INCLINATION    = 65.0767
RA_OF_ASC_NODE = 43.2557
ARG_OF_PERICENTER = 300.0059
MEAN_ANOMALY   = 59.3260

EPHEMERIS_TYPE = 0
CLASSIFICATION_TYPE = U
NORAD_CAT_ID   = 877
ELEMENT_SET_NO = 999
REV_AT_EPOCH   = 26320
BSTAR          = .97209E-4
MEAN_MOTION_DOT = .377E-5
MEAN_MOTION_DDOT = 0

CCSDS_OMM_VERS = 2.0
CREATION_DATE  = 
ORIGINATOR     = 

OBJECT_NAME    = SL-8 R/B
OBJECT_ID      = 1967-045B
CENTER_NAME    = EARTH
REF_FRAME      = TEME
TIME_SYSTEM    = UTC
MEAN_ELEMENT_THEORY = SGP/SGP4

EPOCH          = 2026-02-13T03:30:55.286208
MEAN_MOTION    = 14.45597191
ECCENTRICITY   = .0063248
INCLINATION    = 74.0106
RA_OF_ASC_NODE = 33.9220
ARG_OF_PERICENTER = 46.2917
MEAN_ANOMALY   = 314.3454

EPHEMERIS_TYPE = 0
CLASSIFICATION_TYPE = U
NORAD_CAT_ID   = 2802
ELEMENT_SET_NO = 999
REV_AT_EPOCH   = 8547
BSTAR          = .11053E-3
MEAN_MOTION_DOT = .372E-5
MEAN_MOTION_DDOT = 0

CCSDS_OMM_VERS = 2.0
CREATION_DATE  = 
ORIGINATOR     = 

OBJECT_NAME    = SL-8 R/B
OBJECT_ID      = 1968-040B
CENTER_NAME    = EARTH
REF_FRAME      = TEME
TIME_SYSTEM    = UTC
MEAN_ELEMENT_THEORY = SGP/SGP4

EPOCH          = 2026-02-13T00:25:34.355136
MEAN_MOTION    = 15.03068651
ECCENTRICITY   = .0025067
INCLINATION    = 74.0321
RA_OF_ASC_NODE = 4.0950
ARG_OF_PERICENTER = 195.2426
MEAN_ANOMALY   = 164.8011

EPHEMERIS_TYPE = 0
CLASSIFICATION_TYPE = U
NORAD_CAT_ID   = 3230
ELEMENT_SET_NO = 999
REV_AT_EPOCH   = 8630
BSTAR          = .29067E-3
MEAN_MOTION_DOT = .3904E-4
MEAN_MOTION_DDOT = 0

CCSDS_OMM_VERS = 2.0
CREATION_DATE  = 
ORIGINATOR     = 

OBJECT_NAME    = OAO 2
OBJECT_ID      = 1968-110A
CENTER_NAME    = EARTH
REF_FRAME      = TEME
TIME_SYSTEM    = UTC
MEAN_ELEMENT_THEORY = SGP/SGP4

EPOCH          = 2026-02-13T02:02:57.688224
MEAN_MOTION    = 14.47292547
ECCENTRICITY   = .0005478
INCLINATION    = 34.9943
RA_OF_ASC_NODE = 42.5909
ARG_OF_PERICENTER = 354.3012
MEAN_ANOMALY   = 5.7615

EPHEMERIS_TYPE = 0
CLASSIFICATION_TYPE = U
NORAD_CAT_ID   = 3597
ELEMENT_SET_NO = 999
REV_AT_EPOCH   = 1553
BSTAR          = .79371E-4
MEAN_MOTION_DOT = .275E-5
MEAN_MOTION_DDOT = 0

CCSDS_OMM_VERS = 2.0
CREATION_DATE  = 
ORIGINATOR     = 

OBJECT_NAME    = ISIS 1
OBJECT_ID      = 1969-009A
CENTER_NAME    = EARTH
REF_FRAME      = TEME
TIME_SYSTEM    = UTC
MEAN_ELEMENT_THEORY = SGP/SGP4

EPOCH          = 2026-02-12T20:21:08.242848
MEAN_MOTION    = 11.30404848
ECCENTRICITY   = .1707853
INCLINATION    = 88.4556
RA_OF_ASC_NODE = 158.0153
ARG_OF_PERICENTER = 139.2833
MEAN_ANOMALY   = 234.9380

EPHEMERIS_TYPE = 0
CLASSIFICATION_TYPE = U
NORAD_CAT_ID   = 3669
ELEMENT_SET_NO = 999
REV_AT_EPOCH   = 34572
BSTAR          = .19216E-3
MEAN_MOTION_DOT = .29E-5
MEAN_MOTION_DDOT = 0

CCSDS_OMM_VERS = 2.0
CREATION_DATE  = 
ORIGINATOR     = 

OBJECT_NAME    = SERT 2
OBJECT_ID      = 1970-009A
CENTER_NAME    = EARTH
REF_FRAME      = TEME
TIME_SYSTEM    = UTC
MEAN_ELEMENT_THEORY = SGP/SGP4

EPOCH          = 2026-02-12T19:15:48.261024
MEAN_MOTION    = 13.58727389
ECCENTRICITY   = .00041177
INCLINATION    = 99.2725
RA_OF_ASC_NODE = 348.2625
ARG_OF_PERICENTER = 221.9362
MEAN_ANOMALY   = 166.5510

EPHEMERIS_TYPE = 0
CLASSIFICATION_TYPE = U
NORAD_CAT_ID   = 4327
ELEMENT_SET_NO = 999
REV_AT_EPOCH   = 77651
BSTAR          = .69688694E-4
MEAN_MOTION_DOT = .1E-6
MEAN_MOTION_DDOT = 0

CCSDS_OMM_VERS = 2.0
CREATION_DATE  = 
ORIGINATOR     = 

OBJECT_NAME    = SL-3 R/B
OBJECT_ID      = 1971-028B
CENTER_NAME    = EARTH
REF_FRAME      = TEME
TIME_SYSTEM    = UTC
MEAN_ELEMENT_THEORY = SGP/SGP4

EPOCH          = 2026-02-13T03:42:00.713952
MEAN_MOTION    = 15.59131926
ECCENTRICITY   = .0016997
INCLINATION    = 81.2340
RA_OF_ASC_NODE = 82.2919
ARG_OF_PERICENTER = 21.2218
MEAN_ANOMALY   = 338.9735

EPHEMERIS_TYPE = 0
CLASSIFICATION_TYPE = U
NORAD_CAT_ID   = 5118
ELEMENT_SET_NO = 999
REV_AT_EPOCH   = 98484
BSTAR          = .36462E-3
MEAN_MOTION_DOT = .28776E-3
MEAN_MOTION_DDOT = 0

CCSDS_OMM_VERS = 2.0
CREATION_DATE  = 
ORIGINATOR     = 

OBJECT_NAME    = ASTEX 1
OBJECT_ID      = 1971-089A
CENTER_NAME    = EARTH
REF_FRAME      = TEME
TIME_SYSTEM    = UTC
MEAN_ELEMENT_THEORY = SGP/SGP4

EPOCH          = 2026-02-13T04:45:46.149984
MEAN_MOTION    = 14.50741159
ECCENTRICITY   = .0016387
INCLINATION    = 92.7150
RA_OF_ASC_NODE = 143.8364
ARG_OF_PERICENTER = 159.7118
MEAN_ANOMALY   = 200.4743

EPHEMERIS_TYPE = 0
CLASSIFICATION_TYPE = U
NORAD_CAT_ID   = 5560
ELEMENT_SET_NO = 999
REV_AT_EPOCH   = 85875
BSTAR          = .14624E-3
MEAN_MOTION_DOT = .575E-5
MEAN_MOTION_DDOT = 0

CCSDS_OMM_VERS = 2.0
CREATION_DATE  = 
ORIGINATOR     = 

OBJECT_NAME    = SL-8 R/B
OBJECT_ID      = 1971-119B
CENTER_NAME    = EARTH
REF_FRAME      = TEME
TIME_SYSTEM    = UTC
MEAN_ELEMENT_THEORY = SGP/SGP4

EPOCH          = 2026-02-13T03:48:54.144000
MEAN_MOTION    = 14.37082688
ECCENTRICITY   = .055318
INCLINATION    = 73.8844
RA_OF_ASC_NODE = 221.5451
ARG_OF_PERICENTER = 193.2228
MEAN_ANOMALY   = 165.3923

EPHEMERIS_TYPE = 0
CLASSIFICATION_TYPE = U
NORAD_CAT_ID   = 5730
ELEMENT_SET_NO = 999
REV_AT_EPOCH   = 65196
BSTAR          = .65258E-3
MEAN_MOTION_DOT = .12575E-3
MEAN_MOTION_DDOT = 0

CCSDS_OMM_VERS = 2.0
CREATION_DATE  = 
ORIGINATOR     = 

OBJECT_NAME    = OAO 3 (COPERNICUS)
OBJECT_ID      = 1972-065A
CENTER_NAME    = EARTH
REF_FRAME      = TEME
TIME_SYSTEM    = UTC
MEAN_ELEMENT_THEORY = SGP/SGP4

EPOCH          = 2026-02-13T04:25:03.578016
MEAN_MOTION    = 14.59975791
ECCENTRICITY   = .0006997
INCLINATION    = 35.0057
RA_OF_ASC_NODE = 76.9289
ARG_OF_PERICENTER = 316.4806
MEAN_ANOMALY   = 99.6758

EPHEMERIS_TYPE = 0
CLASSIFICATION_TYPE = U
NORAD_CAT_ID   = 6153
ELEMENT_SET_NO = 999
REV_AT_EPOCH   = 84261
BSTAR          = .842E-4
MEAN_MOTION_DOT = .389E-5
MEAN_MOTION_DDOT = 0

